start=new Date('2023-06-14T00:00:00.000Z').valueOf();
sats=[{"TLE_LINE1":"1 52100U 22029N   23164.63588998 -.00000128  00000-0  10067-4 0  9995","MEAN_ANOMALY":"255.0358","OBJECT_NAME":"STARLINK-3702","BSTAR":"0.00001006700000","EPOCH":"2023-06-13T15:15:40.894272","COUNTRY_CODE":"US","NORAD_CAT_ID":"52100","MEAN_MOTION_DDOT":"0.0000000000000","LAUNCH_DATE":"2022-03-19","TIME_SYSTEM":"UTC","APOAPSIS":"540.464","MEAN_MOTION":"15.08834724","OBJECT_ID":"2022-029N","SEMIMAJOR_AXIS":"6917.897","EPHEMERIS_TYPE":"0","PERIOD":"95.438","REF_FRAME":"TEME","FILE":"3932371","ELEMENT_SET_NO":"999","DECAY_DATE":null,"ARG_OF_PERICENTER":"105.0746","PERIAPSIS":"539.059","CLASSIFICATION_TYPE":"U","ECCENTRICITY":"0.00010160","TLE_LINE2":"2 52100  53.2172 258.5381 0001016 105.0746 255.0358 15.08834724 69682","SITE":"AFETR","RCS_SIZE":"LARGE","REV_AT_EPOCH":"6968","OBJECT_TYPE":"PAYLOAD","MEAN_MOTION_DOT":"-0.00000128","GP_ID":"233872760","MEAN_ELEMENT_THEORY":"SGP4","INCLINATION":"53.2172","RA_OF_ASC_NODE":"258.5381","CENTER_NAME":"EARTH"},{"MEAN_ANOMALY":"256.1644","TLE_LINE1":"1 52101U 22029P   23164.29828332 -.00001335  00000-0 -65839-4 0  9996","OBJECT_NAME":"STARLINK-3703","COUNTRY_CODE":"US","NORAD_CAT_ID":"52101","BSTAR":"-0.00006583900000","EPOCH":"2023-06-13T07:09:31.678848","LAUNCH_DATE":"2022-03-19","MEAN_MOTION_DDOT":"0.0000000000000","TIME_SYSTEM":"UTC","APOAPSIS":"540.539","MEAN_MOTION":"15.08835634","OBJECT_ID":"2022-029P","SEMIMAJOR_AXIS":"6917.894","EPHEMERIS_TYPE":"0","FILE":"3932134","REF_FRAME":"TEME","PERIOD":"95.438","CLASSIFICATION_TYPE":"U","PERIAPSIS":"538.978","ARG_OF_PERICENTER":"103.9474","ELEMENT_SET_NO":"999","DECAY_DATE":null,"TLE_LINE2":"2 52101  53.2174 260.0657 0001128 103.9474 256.1644 15.08835634 69623","SITE":"AFETR","ECCENTRICITY":"0.00011280","OBJECT_TYPE":"PAYLOAD","REV_AT_EPOCH":"6962","RCS_SIZE":"LARGE","MEAN_ELEMENT_THEORY":"SGP4","INCLINATION":"53.2174","MEAN_MOTION_DOT":"-0.00001335","GP_ID":"233840300","RA_OF_ASC_NODE":"260.0657","CENTER_NAME":"EARTH"},{"TIME_SYSTEM":"UTC","APOAPSIS":"540.566","MEAN_MOTION_DDOT":"0.0000000000000","LAUNCH_DATE":"2022-03-19","EPOCH":"2023-06-13T05:46:04.092960","BSTAR":"0.00003799600000","COUNTRY_CODE":"US","NORAD_CAT_ID":"52102","OBJECT_NAME":"STARLINK-3709","TLE_LINE1":"1 52102U 22029Q   23164.24032515  .00000317  00000-0  37996-4 0  9992","MEAN_ANOMALY":"275.6214","REF_FRAME":"TEME","PERIOD":"95.438","FILE":"3932134","EPHEMERIS_TYPE":"0","OBJECT_ID":"2022-029Q","MEAN_MOTION":"15.08834857","SEMIMAJOR_AXIS":"6917.896","GP_ID":"233840550","MEAN_MOTION_DOT":"0.00000317","MEAN_ELEMENT_THEORY":"SGP4","INCLINATION":"53.2167","RCS_SIZE":"LARGE","REV_AT_EPOCH":"6975","OBJECT_TYPE":"PAYLOAD","ECCENTRICITY":"0.00011630","TLE_LINE2":"2 52102  53.2167 250.3140 0001163  84.4911 275.6214 15.08834857 69752","SITE":"AFETR","DECAY_DATE":null,"ELEMENT_SET_NO":"999","CLASSIFICATION_TYPE":"U","PERIAPSIS":"538.957","ARG_OF_PERICENTER":"84.4911","CENTER_NAME":"EARTH","RA_OF_ASC_NODE":"250.3140"},{"ECCENTRICITY":"0.00011550","SITE":"AFETR","TLE_LINE2":"2 52103  53.2161 248.6528 0001155 100.5385 259.5737 15.08830262 69806","ELEMENT_SET_NO":"999","DECAY_DATE":null,"CLASSIFICATION_TYPE":"U","PERIAPSIS":"538.976","ARG_OF_PERICENTER":"100.5385","MEAN_MOTION_DOT":"0.00000776","GP_ID":"233874509","MEAN_ELEMENT_THEORY":"SGP4","INCLINATION":"53.2161","REV_AT_EPOCH":"6980","RCS_SIZE":"LARGE","OBJECT_TYPE":"PAYLOAD","RA_OF_ASC_NODE":"248.6528","CENTER_NAME":"EARTH","BSTAR":"0.00006684200000","EPOCH":"2023-06-13T14:39:54.805536","NORAD_CAT_ID":"52103","COUNTRY_CODE":"US","MEAN_ANOMALY":"259.5737","TLE_LINE1":"1 52103U 22029R   23164.61105099  .00000776  00000-0  66842-4 0  9993","OBJECT_NAME":"STARLINK-3705","APOAPSIS":"540.574","TIME_SYSTEM":"UTC","MEAN_MOTION_DDOT":"0.0000000000000","LAUNCH_DATE":"2022-03-19","SEMIMAJOR_AXIS":"6917.910","OBJECT_ID":"2022-029R","MEAN_MOTION":"15.08830262","PERIOD":"95.438","REF_FRAME":"TEME","FILE":"3932371","EPHEMERIS_TYPE":"0"},{"INCLINATION":"53.2158","MEAN_ELEMENT_THEORY":"SGP4","MEAN_MOTION_DOT":"-0.00001471","GP_ID":"233873261","OBJECT_TYPE":"PAYLOAD","REV_AT_EPOCH":"6980","RCS_SIZE":"LARGE","TLE_LINE2":"2 52105  53.2158 248.6793 0000925  84.2140 275.8957 15.08834225 69807","SITE":"AFETR","ECCENTRICITY":"0.00009250","ARG_OF_PERICENTER":"84.2140","PERIAPSIS":"539.123","CLASSIFICATION_TYPE":"U","DECAY_DATE":null,"ELEMENT_SET_NO":"999","CENTER_NAME":"EARTH","RA_OF_ASC_NODE":"248.6793","TIME_SYSTEM":"UTC","APOAPSIS":"540.403","LAUNCH_DATE":"2022-03-19","MEAN_MOTION_DDOT":"0.0000000000000","COUNTRY_CODE":"US","NORAD_CAT_ID":"52105","EPOCH":"2023-06-13T14:30:41.067936","BSTAR":"-0.00007440400000","OBJECT_NAME":"STARLINK-3706","TLE_LINE1":"1 52105U 22029T   23164.60464199 -.00001471  00000-0 -74404-4 0  9991","MEAN_ANOMALY":"275.8957","FILE":"3932371","REF_FRAME":"TEME","PERIOD":"95.438","EPHEMERIS_TYPE":"0","OBJECT_ID":"2022-029T","MEAN_MOTION":"15.08834225","SEMIMAJOR_AXIS":"6917.898"},{"RA_OF_ASC_NODE":"260.0736","CENTER_NAME":"EARTH","ECCENTRICITY":"0.00011360","SITE":"AFETR","TLE_LINE2":"2 52106  53.2161 260.0736 0001136  89.8329 270.2793 15.08833787 69621","DECAY_DATE":null,"ELEMENT_SET_NO":"999","CLASSIFICATION_TYPE":"U","PERIAPSIS":"538.979","ARG_OF_PERICENTER":"89.8329","GP_ID":"233840800","MEAN_MOTION_DOT":"-0.00001228","MEAN_ELEMENT_THEORY":"SGP4","INCLINATION":"53.2161","RCS_SIZE":"LARGE","REV_AT_EPOCH":"6962","OBJECT_TYPE":"PAYLOAD","SEMIMAJOR_AXIS":"6917.899","OBJECT_ID":"2022-029U","MEAN_MOTION":"15.08833787","PERIOD":"95.438","REF_FRAME":"TEME","FILE":"3932134","EPHEMERIS_TYPE":"0","BSTAR":"-0.00005910400000","EPOCH":"2023-06-13T07:02:50.915040","NORAD_CAT_ID":"52106","COUNTRY_CODE":"US","MEAN_ANOMALY":"270.2793","TLE_LINE1":"1 52106U 22029U   23164.29364485 -.00001228  00000-0 -59104-4 0  9994","OBJECT_NAME":"STARLINK-3670","APOAPSIS":"540.550","TIME_SYSTEM":"UTC","MEAN_MOTION_DDOT":"0.0000000000000","LAUNCH_DATE":"2022-03-19"},{"TIME_SYSTEM":"UTC","APOAPSIS":"540.507","LAUNCH_DATE":"2022-03-19","MEAN_MOTION_DDOT":"0.0000000000000","NORAD_CAT_ID":"52107","COUNTRY_CODE":"US","EPOCH":"2023-06-13T14:24:00.576288","BSTAR":"-0.00000317250000","OBJECT_NAME":"STARLINK-3658","TLE_LINE1":"1 52107U 22029V   23164.60000667 -.00000338  00000-0 -31725-5 0  9990","MEAN_ANOMALY":"279.5551","FILE":"3932371","PERIOD":"95.438","REF_FRAME":"TEME","EPHEMERIS_TYPE":"0","OBJECT_ID":"2022-029V","MEAN_MOTION":"15.08838644","SEMIMAJOR_AXIS":"6917.885","INCLINATION":"53.2180","MEAN_ELEMENT_THEORY":"SGP4","GP_ID":"233873762","MEAN_MOTION_DOT":"-0.00000338","OBJECT_TYPE":"PAYLOAD","REV_AT_EPOCH":"6980","RCS_SIZE":"LARGE","TLE_LINE2":"2 52107  53.2180 248.7004 0001095  80.5565 279.5551 15.08838644 69809","SITE":"AFETR","ECCENTRICITY":"0.00010950","PERIAPSIS":"538.992","CLASSIFICATION_TYPE":"U","ARG_OF_PERICENTER":"80.5565","ELEMENT_SET_NO":"999","DECAY_DATE":null,"CENTER_NAME":"EARTH","RA_OF_ASC_NODE":"248.7004"},{"ECCENTRICITY":"0.00009930","TLE_LINE2":"2 52108  53.2177 248.6665 0000993  92.7725 267.3381 15.08836673 69803","SITE":"AFETR","DECAY_DATE":null,"ELEMENT_SET_NO":"999","ARG_OF_PERICENTER":"92.7725","PERIAPSIS":"539.069","CLASSIFICATION_TYPE":"U","MEAN_MOTION_DOT":"0.00000397","GP_ID":"233874009","MEAN_ELEMENT_THEORY":"SGP4","INCLINATION":"53.2177","RCS_SIZE":"LARGE","REV_AT_EPOCH":"6980","OBJECT_TYPE":"PAYLOAD","RA_OF_ASC_NODE":"248.6665","CENTER_NAME":"EARTH","EPOCH":"2023-06-13T14:34:36.610752","BSTAR":"0.00004304400000","COUNTRY_CODE":"US","NORAD_CAT_ID":"52108","TLE_LINE1":"1 52108U 22029W   23164.60736818  .00000397  00000-0  43044-4 0  9994","OBJECT_NAME":"STARLINK-3698","MEAN_ANOMALY":"267.3381","TIME_SYSTEM":"UTC","APOAPSIS":"540.443","MEAN_MOTION_DDOT":"0.0000000000000","LAUNCH_DATE":"2022-03-19","OBJECT_ID":"2022-029W","MEAN_MOTION":"15.08836673","SEMIMAJOR_AXIS":"6917.891","REF_FRAME":"TEME","PERIOD":"95.438","FILE":"3932371","EPHEMERIS_TYPE":"0"},{"SEMIMAJOR_AXIS":"6917.898","OBJECT_ID":"2022-029Y","MEAN_MOTION":"15.08834278","EPHEMERIS_TYPE":"0","REF_FRAME":"TEME","PERIOD":"95.438","FILE":"3932371","OBJECT_NAME":"STARLINK-3687","TLE_LINE1":"1 52110U 22029Y   23164.60368914  .00000007  00000-0  18529-4 0  9993","MEAN_ANOMALY":"270.4048","BSTAR":"0.00001852900000","EPOCH":"2023-06-13T14:29:18.741696","NORAD_CAT_ID":"52110","COUNTRY_CODE":"US","MEAN_MOTION_DDOT":"0.0000000000000","LAUNCH_DATE":"2022-03-19","APOAPSIS":"540.448","TIME_SYSTEM":"UTC","RA_OF_ASC_NODE":"248.6854","CENTER_NAME":"EARTH","ELEMENT_SET_NO":"999","DECAY_DATE":null,"ARG_OF_PERICENTER":"89.7058","PERIAPSIS":"539.078","CLASSIFICATION_TYPE":"U","ECCENTRICITY":"0.00009900","SITE":"AFETR","TLE_LINE2":"2 52110  53.2158 248.6854 0000990  89.7058 270.4048 15.08834278 69801","REV_AT_EPOCH":"6980","RCS_SIZE":"LARGE","OBJECT_TYPE":"PAYLOAD","MEAN_MOTION_DOT":"0.00000007","GP_ID":"233872761","MEAN_ELEMENT_THEORY":"SGP4","INCLINATION":"53.2158"},{"LAUNCH_DATE":"2022-03-19","MEAN_MOTION_DDOT":"0.0000000000000","TIME_SYSTEM":"UTC","APOAPSIS":"540.474","TLE_LINE1":"1 52111U 22029Z   23164.25776489 -.00001594  00000-0 -82120-4 0  9997","MEAN_ANOMALY":"282.3123","OBJECT_NAME":"STARLINK-3708","COUNTRY_CODE":"US","NORAD_CAT_ID":"52111","EPOCH":"2023-06-13T06:11:10.886496","BSTAR":"-0.00008212000000","EPHEMERIS_TYPE":"0","FILE":"3932134","REF_FRAME":"TEME","PERIOD":"95.438","OBJECT_ID":"2022-029Z","MEAN_MOTION":"15.08837723","SEMIMAJOR_AXIS":"6917.887","OBJECT_TYPE":"PAYLOAD","REV_AT_EPOCH":"6975","RCS_SIZE":"LARGE","MEAN_ELEMENT_THEORY":"SGP4","INCLINATION":"53.2160","GP_ID":"233840301","MEAN_MOTION_DOT":"-0.00001594","PERIAPSIS":"539.031","CLASSIFICATION_TYPE":"U","ARG_OF_PERICENTER":"77.7986","ELEMENT_SET_NO":"999","DECAY_DATE":null,"TLE_LINE2":"2 52111  53.2160 250.2317 0001043  77.7986 282.3123 15.08837723 69753","SITE":"AFETR","ECCENTRICITY":"0.00010430","CENTER_NAME":"EARTH","RA_OF_ASC_NODE":"250.2317"}];
